NOAA 15                 
1 25338U 98030A   25148.47067921  .00000237  00000+0  11491-3 0  9997
2 25338  98.5355 173.8932 0010983  40.8040 319.3961 14.26972358406670
DMSP 5D-3 F16 (USA 172) 
1 28054U 03048A   25148.50066606  .00000017  00000+0  32712-4 0  9999
2 28054  99.0131 164.2274 0007761 148.1853   7.8345 14.14352849115084
NOAA 18                 
1 28654U 05018A   25148.44784117  .00000223  00000+0  14162-3 0  9998
2 28654  98.8422 228.0603 0014723 159.9501 200.2253 14.13604512 32037
METEOSAT-9 (MSG-2)      
1 28912U 05049B   25147.93757122  .00000121  00000+0  00000+0 0  9997
2 28912   8.4834  57.8379 0001542 359.6562 211.4538  1.00274631 71217
EWS-G1 (GOES 13)        
1 29155U 06018A   25147.36265793 -.00000178  00000+0  00000+0 0  9992
2 29155   3.5292  81.1395 0062378 265.8283 338.9503  0.98804317 39432
DMSP 5D-3 F17 (USA 191) 
1 29522U 06050A   25148.47805945  .00000068  00000+0  57451-4 0  9992
2 29522  98.7387 157.9445 0011295  76.1718 284.0712 14.14832433958017
FENGYUN 3A              
1 32958U 08026A   25148.54250667  .00000112  00000+0  73687-4 0  9996
2 32958  98.6476  92.5555 0009132 149.7789 210.3916 14.19441245880946
NOAA 19                 
1 33591U 09005A   25148.52312812  .00000213  00000+0  13738-3 0  9999
2 33591  98.9977 213.1597 0014361  41.9496 318.2774 14.13367935840408
GOES 14                 
1 35491U 09033A   25147.89142208 -.00000066  00000+0  00000+0 0  9991
2 35491   0.6844  88.2181 0001459  57.9495 312.0621  1.00271821  2731
DMSP 5D-3 F18 (USA 210) 
1 35951U 09057A   25148.48020664  .00000275  00000+0  16633-3 0  9999
2 35951  98.8589 126.1579 0009879 264.7196  95.2850 14.14624385805179
EWS-G2 (GOES 15)        
1 36411U 10008A   25147.77950704  .00000039  00000+0  00000+0 0  9992
2 36411   0.2787  85.8058 0001689 126.5002  15.4089  1.00267308 55773
COMS 1                  
1 36744U 10032A   25147.83520176 -.00000345  00000+0  00000+0 0  9992
2 36744   3.8236  80.1797 0000711 347.2307 247.0152  1.00269974 47229
FENGYUN 3B              
1 37214U 10059A   25148.51731851  .00000082  00000+0  66088-4 0  9994
2 37214  99.0136 186.7842 0021892 193.5790 272.6817 14.14726992753079
SUOMI NPP               
1 37849U 11061A   25148.55921366  .00000095  00000+0  66081-4 0  9995
2 37849  98.7575  87.9594 0001710  30.3131 329.8144 14.19535150703865
METEOSAT-10 (MSG-3)     
1 38552U 12035B   25147.15840984 -.00000005  00000+0  00000+0 0  9996
2 38552   3.7598  62.0715 0000392  16.1073 223.8334  1.00271135 46982
METOP-B                 
1 38771U 12049A   25148.50161483  .00000133  00000+0  80300-4 0  9991
2 38771  98.5777 203.0581 0001787  73.4854 286.6520 14.21498696658608
INSAT-3D                
1 39216U 13038B   25147.89803810 -.00000338  00000+0  00000+0 0  9995
2 39216   0.9306  87.7679 0000580 292.7244 318.0743  1.00268866 43211
FENGYUN 3C              
1 39260U 13052A   25148.49110943  .00000095  00000+0  69516-4 0  9996
2 39260  98.4540 136.0938 0015711  54.0477 306.2152 14.15623726604202
METEOR-M 2              
1 40069U 14037A   25148.51191099  .00000111  00000+0  70219-4 0  9994
2 40069  98.4674 133.9502 0006981  77.0609 283.1348 14.21293999564671
HIMAWARI-8              
1 40267U 14060A   25148.54278397 -.00000277  00000+0  00000+0 0  9990
2 40267   0.0146 350.1143 0000168  58.1120 174.1437  1.00267712 39006
FENGYUN 2G              
1 40367U 14090A   25147.98210146 -.00000302  00000+0  00000+0 0  9998
2 40367   4.6643  77.4984 0003761 148.8722 112.1685  1.00281841 38171
METEOSAT-11 (MSG-4)     
1 40732U 15034A   25147.87414905  .00000063  00000+0  00000+0 0  9993
2 40732   2.2391  72.3474 0001179 296.2147 201.0464  1.00274094  3356
ELEKTRO-L 2             
1 41105U 15074A   25147.15554279 -.00000116  00000+0  00000+0 0  9992
2 41105   5.7204  75.2818 0001531 222.5278 348.6375  1.00270269 34639
INSAT-3DR               
1 41752U 16054A   25147.96152686 -.00000076  00000+0  00000+0 0  9999
2 41752   0.1463  91.5930 0010526 180.6125  33.7015  1.00271195 31952
HIMAWARI-9              
1 41836U 16064A   25148.54278397 -.00000275  00000+0  00000+0 0  9997
2 41836   0.0105  71.4624 0001064  34.1523 116.8899  1.00271441 31447
GOES 16                 
1 41866U 16071A   25147.85254948 -.00000100  00000+0  00000+0 0  9994
2 41866   0.0468 260.9387 0001296 230.7256 321.2344  1.00124390 31231
FENGYUN 4A              
1 41882U 16077A   25147.46851479 -.00000355  00000+0  00000+0 0  9999
2 41882   1.3397  84.4378 0007441 165.3692 287.6779  1.00266572 31065
CYGFM05                 
1 41884U 16078A   25147.69170507  .00011119  00000+0  26845-3 0  9991
2 41884  34.9608 258.8118 0009435 128.1422 232.0148 15.40310791468998
CYGFM04                 
1 41885U 16078B   25147.92790700  .00012230  00000+0  27704-3 0  9991
2 41885  34.9357 236.6763 0008911 153.5505 206.5670 15.42207560469169
CYGFM02                 
1 41886U 16078C   25147.68104775  .00012477  00000+0  27486-3 0  9996
2 41886  34.9446 238.6465 0010503 144.7612 215.3804 15.43017404469233
CYGFM01                 
1 41887U 16078D   25147.68176016  .00011183  00000+0  26663-3 0  9993
2 41887  34.9448 262.4393 0008914 113.7585 246.4070 15.40690750468922
CYGFM08                 
1 41888U 16078E   25147.67491681  .00011638  00000+0  26907-3 0  9997
2 41888  34.9467 247.4195 0011001 139.2119 220.9425 15.41584092469131
CYGFM07                 
1 41890U 16078G   25147.62329169  .00011810  00000+0  26815-3 0  9996
2 41890  34.9486 237.8516 0009256 157.2671 202.8460 15.42142271469135
CYGFM03                 
1 41891U 16078H   25147.62678478  .00011619  00000+0  26592-3 0  9996
2 41891  34.9439 239.4233 0008150 142.3249 217.8042 15.41916142469111
FENGYUN 3D              
1 43010U 17072A   25148.47968356  .00000076  00000+0  57648-4 0  9999
2 43010  98.9616 112.1544 0002616  77.1229 283.0239 14.19626524390403
NOAA 20 (JPSS-1)        
1 43013U 17073A   25148.43378327  .00000079  00000+0  58391-4 0  9991
2 43013  98.7414  87.1666 0001129  27.8870 332.2366 14.19540004389884
GOES 17                 
1 43226U 18022A   25148.06583534 -.00000092  00000+0  00000+0 0  9994
2 43226   0.0198 228.7519 0002688 235.3018  61.0883  1.00271144 26573
FENGYUN 2H              
1 43491U 18050A   25147.88804686 -.00000127  00000+0  00000+0 0  9991
2 43491   2.0393  83.6396 0000719 127.4746  73.4694  1.00268546 25577
METOP-C                 
1 43689U 18087A   25148.46722572  .00000130  00000+0  79547-4 0  9998
2 43689  98.7161 208.9519 0001411 148.6328 211.4934 14.21481752340171
GEO-KOMPSAT-2A          
1 43823U 18100A   25148.54026444 -.00000344  00000+0  00000+0 0  9999
2 43823   0.0545 125.4581 0001657 308.3042 135.3304  1.00271087 23809
METEOR-M2 2             
1 44387U 19038A   25148.48431439  .00000093  00000+0  60181-4 0  9994
2 44387  98.8739 126.0470 0002245  66.4285 293.7129 14.24205151306531
ARKTIKA-M 1             
1 47719U 21016A   25147.19456162  .00000023  00000+0  00000+0 0  9994
2 47719  63.1478 110.3659 7099392 268.6129  16.6461  2.00598357 31048
FENGYUN 3E              
1 49008U 21062A   25148.51599685  .00000002  00000+0  21691-4 0  9994
2 49008  98.7418 151.3916 0002700 106.8854 253.2619 14.19865451201990
GOES 18                 
1 51850U 22021A   25148.45878154  .00000096  00000+0  00000+0 0  9991
2 51850   0.0008 230.0722 0000125 313.0736  91.2551  1.00271021 11948
NOAA 21 (JPSS-2)        
1 54234U 22150A   25147.83574502  .00000043  00000+0  41242-4 0  9994
2 54234  98.7269  86.8936 0001314 165.7428 194.3786 14.19534417131870
METEOSAT-12 (MTG-I1)    
1 54743U 22170C   25147.80085096 -.00000006  00000+0  00000+0 0  9995
2 54743   0.6378  31.1726 0000816  40.9021 101.5202  1.00269426  9112
TIANMU-1 03             
1 55973U 23039A   25148.50700532  .00010768  00000+0  31936-3 0  9994
2 55973  97.4995 306.8431 0004755  58.4826 301.6881 15.35000878121607
TIANMU-1 04             
1 55974U 23039B   25148.52142339  .00011276  00000+0  33182-3 0  9992
2 55974  97.4924 306.1544 0005444  52.4299 307.7438 15.35231977121603
TIANMU-1 05             
1 55975U 23039C   25148.47654250  .00010516  00000+0  31219-3 0  9992
2 55975  97.4971 306.5682 0004868  76.3501 283.8284 15.34975857121584
TIANMU-1 06             
1 55976U 23039D   25148.53265838  .00011098  00000+0  32579-3 0  9996
2 55976  97.4984 306.9426 0005225  70.9918 289.1891 15.35312151121608
METEOR-M2 3             
1 57166U 23091A   25148.47674238  .00000005  00000+0  21181-4 0  9992
2 57166  98.6619 205.1432 0003632 191.4971 168.6125 14.23998988 99760
TIANMU-1 07             
1 57399U 23101A   25148.53390501  .00005896  00000+0  23935-3 0  9998
2 57399  97.3112 202.8916 0005816  70.8399 289.3468 15.24952443102925
TIANMU-1 08             
1 57400U 23101B   25148.50015959  .00006192  00000+0  25110-3 0  9996
2 57400  97.3101 202.6881 0007931  71.3509 288.8590 15.24955982102914
TIANMU-1 09             
1 57401U 23101C   25148.48318517  .00006322  00000+0  25685-3 0  9992
2 57401  97.3056 202.3094 0007089  72.2486 287.9525 15.24886340102914
TIANMU-1 10             
1 57402U 23101D   25148.51568687  .00006393  82265-8  25745-3 0  9999
2 57402  97.3137 202.9824 0008972  69.9961 290.2242 15.24869951102917
FENGYUN 3F              
1 57490U 23111A   25148.51019479  .00000085  00000+0  60396-4 0  9999
2 57490  98.7273 219.7349 0001572 127.6603 232.4716 14.20042294 94273
ARKTIKA-M 2             
1 58584U 23198A   25148.42968298  .00000195  00000+0  00000+0 0  9994
2 58584  63.2288 196.5319 6874524 268.8953  18.4600  2.00610828 10593
TIANMU-1 11             
1 58645U 23205A   25148.53457397  .00005153  00000+0  22878-3 0  9996
2 58645  97.3721 171.8451 0007984 280.8476  79.1862 15.21964663 78921
TIANMU-1 12             
1 58646U 23205B   25148.48496005  .00005480  00000+0  24368-3 0  9999
2 58646  97.3707 171.6612 0006027 265.7290  94.3257 15.21894842 78902
TIANMU-1 13             
1 58647U 23205C   25148.51748300  .00005066  00000+0  22565-3 0  9999
2 58647  97.3735 171.8212 0006426 238.5148 121.5460 15.21868527 78905
TIANMU-1 14             
1 58648U 23205D   25148.50092546  .00004963  00000+0  22097-3 0  9998
2 58648  97.3666 171.3371 0007348 246.2401 113.8065 15.21890377 78905
TIANMU-1 19             
1 58660U 23208A   25148.59297258  .00007640  00000+0  31867-3 0  9991
2 58660  97.4275 260.8828 0004805 222.2996 137.7872 15.23952832 78611
TIANMU-1 20             
1 58661U 23208B   25148.40716253  .00006976  00000+0  28100-3 0  9990
2 58661  97.4210 260.9526 0006960 239.5576 120.4975 15.25151377 78638
TIANMU-1 21             
1 58662U 23208C   25148.55365220  .00008032  00000+0  30518-3 0  9992
2 58662  97.4253 262.2404 0006658 235.6336 124.4274 15.27052305 78719
TIANMU-1 22             
1 58663U 23208D   25148.57955548  .00006774  00000+0  28299-3 0  9997
2 58663  97.4268 260.9735 0002861 248.1284 111.9649 15.23950178 78629
TIANMU-1 15             
1 58700U 24004A   25147.90586692  .00004902  00000+0  21921-3 0  9996
2 58700  97.4648 330.5454 0005198 266.1584  93.9058 15.21769715 77089
TIANMU-1 16             
1 58701U 24004B   25148.54823511  .00005168  00000+0  23057-3 0  9999
2 58701  97.4583 330.7387 0005500 270.6334  89.4272 15.21815911 77184
TIANMU-1 17             
1 58702U 24004C   25148.53600618  .00005327  00000+0  23651-3 0  9997
2 58702  97.4621 331.0351 0004134 271.9849  88.0914 15.21976788 77177
TIANMU-1 18             
1 58703U 24004D   25148.51745194  .00005263  00000+0  23433-3 0  9992
2 58703  97.4639 331.1698 0004028 255.3845 104.6945 15.21888746 77171
INSAT-3DS               
1 58990U 24033A   25147.88865502 -.00000155  00000+0  00000+0 0  9994
2 58990   0.0211 267.6087 0000986 144.7430 235.3214  1.00271078 43204
METEOR-M2 4             
1 59051U 24039A   25148.54484404  .00000021  00000+0  28732-4 0  9999
2 59051  98.6488 108.9063 0006618 194.6095 165.4892 14.22366058 64582
GOES 19                 
1 60133U 24119A   25148.22201410 -.00000248  00000+0  00000+0 0  9995
2 60133   0.0557 123.2632 0000061  97.3402  30.1284  1.00270470  3443
